STARLINK-35477          
1 66338U 25253V   26068.41512663  .00025394  00000+0  92907-3 0  9995
2 66338  42.9991 213.9589 0002092 275.6665  84.3948 15.27582395 20206
KUIPER-00209            
1 67776U 26030N   26068.61786546  .00035298  00000+0  11963-2 0  9997
2 67776  51.8838 220.0775 0012191  59.1967 301.0215 15.30161950  5077
